{"type":"Feature","properties":{"name":"panel_boundary","width_m":1905.4,"depth_m":220,"extraction_thickness_m":2.5,"seam_dip_deg":0,"water_risk_flag":false,"fault_risk_flag":false,"old_workings_flag":false},"geometry":{"type":"Polygon","coordinates":[[[86.41293007863884,23.751363479257755],[86.40959993154553,23.75136345814723],[86.40887452024951,23.75129725632693],[86.40817766377799,23.751101281305925],[86.40753679009562,23.750783246628192],[86.4069771232386,23.750355670011974],[86.40652069038764,23.749835380559787],[86.40618545488395,23.74924285626265],[86.40598460932044,23.7486014178964],[86.40592605651753,23.74793631105944],[86.40601209878102,23.747273712500128],[86.40623934762615,23.746639699854423],[86.40659885746888,23.746059225345785],[86.40707647797105,23.74555513383363],[86.41447646304555,23.73915525397342],[86.4150748531721,23.73873515203676],[86.41575433017874,23.738435722758425],[86.41648627424473,23.738269578009394],[86.4172398561297,23.738243715719477],[86.41798333542519,23.73835922519246],[86.4186853971416,23.738611241235564],[86.41931647039657,23.7389891490332],[86.43061639324365,23.74738898063429],[86.43110966933762,23.747832286103698],[86.43150351146431,23.748352310192686],[86.43178398024129,23.748930649182473],[86.43194114816086,23.74954683532674],[86.43196945111656,23.75017906115034],[86.4318678855608,23.75080495119907],[86.43164004428283,23.751402353934395],[86.43129398950438,23.75195012574804],[86.43084196774929,23.752428879343952],[86.42354195653786,23.758828998735282],[86.42298194957911,23.759232363457638],[86.42234740905963,23.75952921883464],[86.4216621972846,23.759708401230625],[86.4209520825267,23.759763172220158],[86.4202437697838,23.75969147205168],[86.41956389627072,23.759495997125246],[86.41893802946285,23.75918409856732],[86.41838970541342,23.758767505721163],[86.41793954354421,23.75826188496249],[86.41293007863884,23.751363479257755]]]}}