{"type":"FeatureCollection","features":[{"type":"Feature","properties":{"measured_subsidence_mm":4.1192596003571245},"geometry":{"type":"Point","coordinates":[86.40837577569184,23.740280436708307]}},{"type":"Feature","properties":{"measured_subsidence_mm":3.8063820083469126},"geometry":{"type":"Point","coordinates":[86.40837577569184,23.74297839779948]}},{"type":"Feature","properties":{"measured_subsidence_mm":3.107033295353182},"geometry":{"type":"Point","coordinates":[86.40837577569184,23.745676358890652]}},{"type":"Feature","properties":{"measured_subsidence_mm":5.707443939471038},"geometry":{"type":"Point","coordinates":[86.40837577569184,23.748374319981824]}},{"type":"Feature","properties":{"measured_subsidence_mm":5.847722864603888},"geometry":{"type":"Point","coordinates":[86.40837577569184,23.751072281072997]}},{"type":"Feature","properties":{"measured_subsidence_mm":6.04470826229261},"geometry":{"type":"Point","coordinates":[86.40837577569184,23.75377024216417]}},{"type":"Feature","properties":{"measured_subsidence_mm":7.429897283356277},"geometry":{"type":"Point","coordinates":[86.40837577569184,23.75646820325534]}},{"type":"Feature","properties":{"measured_subsidence_mm":6.8622807221063855},"geometry":{"type":"Point","coordinates":[86.4113231232909,23.740280436708307]}},{"type":"Feature","properties":{"measured_subsidence_mm":7.91953685616181},"geometry":{"type":"Point","coordinates":[86.4113231232909,23.74297839779948]}},{"type":"Feature","properties":{"measured_subsidence_mm":7.2464055680988455},"geometry":{"type":"Point","coordinates":[86.4113231232909,23.745676358890652]}},{"type":"Feature","properties":{"measured_subsidence_mm":7.084805788683583},"geometry":{"type":"Point","coordinates":[86.4113231232909,23.748374319981824]}},{"type":"Feature","properties":{"measured_subsidence_mm":6.710699741416512},"geometry":{"type":"Point","coordinates":[86.4113231232909,23.751072281072997]}},{"type":"Feature","properties":{"measured_subsidence_mm":7.262582256675912},"geometry":{"type":"Point","coordinates":[86.4113231232909,23.75377024216417]}},{"type":"Feature","properties":{"measured_subsidence_mm":9.191703845027067},"geometry":{"type":"Point","coordinates":[86.4113231232909,23.75646820325534]}},{"type":"Feature","properties":{"measured_subsidence_mm":7.710004499887175},"geometry":{"type":"Point","coordinates":[86.41427047088996,23.740280436708307]}},{"type":"Feature","properties":{"measured_subsidence_mm":8.779403132046983},"geometry":{"type":"Point","coordinates":[86.41427047088996,23.74297839779948]}},{"type":"Feature","properties":{"measured_subsidence_mm":10.405287040353583},"geometry":{"type":"Point","coordinates":[86.41427047088996,23.745676358890652]}},{"type":"Feature","properties":{"measured_subsidence_mm":8.427455214848212},"geometry":{"type":"Point","coordinates":[86.41427047088996,23.748374319981824]}},{"type":"Feature","properties":{"measured_subsidence_mm":7.899573304671176},"geometry":{"type":"Point","coordinates":[86.41427047088996,23.751072281072997]}},{"type":"Feature","properties":{"measured_subsidence_mm":9.058827317112776},"geometry":{"type":"Point","coordinates":[86.41427047088996,23.75377024216417]}},{"type":"Feature","properties":{"measured_subsidence_mm":11.52599630632696},"geometry":{"type":"Point","coordinates":[86.41427047088996,23.75646820325534]}},{"type":"Feature","properties":{"measured_subsidence_mm":6.759842537268253},"geometry":{"type":"Point","coordinates":[86.41721781848902,23.740280436708307]}},{"type":"Feature","properties":{"measured_subsidence_mm":7.835945852450956},"geometry":{"type":"Point","coordinates":[86.41721781848902,23.74297839779948]}},{"type":"Feature","properties":{"measured_subsidence_mm":8.729814326588603},"geometry":{"type":"Point","coordinates":[86.41721781848902,23.745676358890652]}},{"type":"Feature","properties":{"measured_subsidence_mm":8.296010178020827},"geometry":{"type":"Point","coordinates":[86.41721781848902,23.748374319981824]}},{"type":"Feature","properties":{"measured_subsidence_mm":8.224068937443292},"geometry":{"type":"Point","coordinates":[86.41721781848902,23.751072281072997]}},{"type":"Feature","properties":{"measured_subsidence_mm":9.20320149001114},"geometry":{"type":"Point","coordinates":[86.41721781848902,23.75377024216417]}},{"type":"Feature","properties":{"measured_subsidence_mm":10.854588405760952},"geometry":{"type":"Point","coordinates":[86.41721781848902,23.75646820325534]}},{"type":"Feature","properties":{"measured_subsidence_mm":6.884459167434432},"geometry":{"type":"Point","coordinates":[86.42016516608808,23.740280436708307]}},{"type":"Feature","properties":{"measured_subsidence_mm":7.355707887281687},"geometry":{"type":"Point","coordinates":[86.42016516608808,23.74297839779948]}},{"type":"Feature","properties":{"measured_subsidence_mm":7.6222762765585355},"geometry":{"type":"Point","coordinates":[86.42016516608808,23.745676358890652]}},{"type":"Feature","properties":{"measured_subsidence_mm":7.794597819268256},"geometry":{"type":"Point","coordinates":[86.42016516608808,23.748374319981824]}},{"type":"Feature","properties":{"measured_subsidence_mm":8.050753158571068},"geometry":{"type":"Point","coordinates":[86.42016516608808,23.751072281072997]}},{"type":"Feature","properties":{"measured_subsidence_mm":8.594880552158811},"geometry":{"type":"Point","coordinates":[86.42016516608808,23.75377024216417]}},{"type":"Feature","properties":{"measured_subsidence_mm":9.332122011850712},"geometry":{"type":"Point","coordinates":[86.42016516608808,23.75646820325534]}},{"type":"Feature","properties":{"measured_subsidence_mm":7.31095092264758},"geometry":{"type":"Point","coordinates":[86.42311251368714,23.740280436708307]}},{"type":"Feature","properties":{"measured_subsidence_mm":7.327260210774859},"geometry":{"type":"Point","coordinates":[86.42311251368714,23.74297839779948]}},{"type":"Feature","properties":{"measured_subsidence_mm":6.408651523532654},"geometry":{"type":"Point","coordinates":[86.42311251368714,23.745676358890652]}},{"type":"Feature","properties":{"measured_subsidence_mm":7.621430028465534},"geometry":{"type":"Point","coordinates":[86.42311251368714,23.748374319981824]}},{"type":"Feature","properties":{"measured_subsidence_mm":7.907267176619445},"geometry":{"type":"Point","coordinates":[86.42311251368714,23.751072281072997]}},{"type":"Feature","properties":{"measured_subsidence_mm":8.16833545195733},"geometry":{"type":"Point","coordinates":[86.42311251368714,23.75377024216417]}},{"type":"Feature","properties":{"measured_subsidence_mm":8.51908000490398},"geometry":{"type":"Point","coordinates":[86.42311251368714,23.75646820325534]}},{"type":"Feature","properties":{"measured_subsidence_mm":7.5131861543139395},"geometry":{"type":"Point","coordinates":[86.4260598612862,23.740280436708307]}},{"type":"Feature","properties":{"measured_subsidence_mm":7.698509435775584},"geometry":{"type":"Point","coordinates":[86.4260598612862,23.74297839779948]}},{"type":"Feature","properties":{"measured_subsidence_mm":9.971732700499706},"geometry":{"type":"Point","coordinates":[86.4260598612862,23.745676358890652]}},{"type":"Feature","properties":{"measured_subsidence_mm":8.13912261678489},"geometry":{"type":"Point","coordinates":[86.4260598612862,23.748374319981824]}},{"type":"Feature","properties":{"measured_subsidence_mm":7.870182450058653},"geometry":{"type":"Point","coordinates":[86.4260598612862,23.751072281072997]}},{"type":"Feature","properties":{"measured_subsidence_mm":7.966905346170865},"geometry":{"type":"Point","coordinates":[86.4260598612862,23.75377024216417]}},{"type":"Feature","properties":{"measured_subsidence_mm":8.149366856798387},"geometry":{"type":"Point","coordinates":[86.4260598612862,23.75646820325534]}}]}