{"type":"FeatureCollection","features":[{"type":"Feature","properties":{"subsidence_mm":1556.92,"tilt_deg":-0.80184,"strain_ue":-434.13,"x_offset_m":45,"y_offset_m":60,"source":"NCB_PFM","nearest_asset_distance_m":17,"consequence_weight":2.9,"idw_subsidence_mm":10.06,"risk_score":0.903,"risk_level":"High","node_tier":"Full"},"geometry":{"type":"Point","coordinates":[86.430842,23.764939]}},{"type":"Feature","properties":{"subsidence_mm":1556.92,"tilt_deg":-0.80184,"strain_ue":-434.13,"x_offset_m":45,"y_offset_m":105,"source":"NCB_PFM","nearest_asset_distance_m":41,"consequence_weight":2.75,"idw_subsidence_mm":10.06,"risk_score":0.893,"risk_level":"High","node_tier":"Full"},"geometry":{"type":"Point","coordinates":[86.430842,23.765343]}},{"type":"Feature","properties":{"subsidence_mm":1556.92,"tilt_deg":-0.80184,"strain_ue":-434.13,"x_offset_m":45,"y_offset_m":15,"source":"NCB_PFM","nearest_asset_distance_m":54,"consequence_weight":2.68,"idw_subsidence_mm":10.06,"risk_score":0.888,"risk_level":"High","node_tier":"Full"},"geometry":{"type":"Point","coordinates":[86.430842,23.764535]}},{"type":"Feature","properties":{"subsidence_mm":314.84,"tilt_deg":-0.81193,"strain_ue":422.89,"x_offset_m":105,"y_offset_m":60,"source":"NCB_PFM","nearest_asset_distance_m":44,"consequence_weight":2.73,"idw_subsidence_mm":10.06,"risk_score":0.879,"risk_level":"High","node_tier":"Crack"},"geometry":{"type":"Point","coordinates":[86.431431,23.764939]}},{"type":"Feature","properties":{"subsidence_mm":1556.92,"tilt_deg":-0.80184,"strain_ue":-434.13,"x_offset_m":45,"y_offset_m":150,"source":"NCB_PFM","nearest_asset_distance_m":85,"consequence_weight":2.49,"idw_subsidence_mm":10.06,"risk_score":0.875,"risk_level":"High","node_tier":"Full"},"geometry":{"type":"Point","coordinates":[86.430842,23.765747]}},{"type":"Feature","properties":{"subsidence_mm":314.84,"tilt_deg":-0.81193,"strain_ue":422.89,"x_offset_m":105,"y_offset_m":30,"source":"NCB_PFM","nearest_asset_distance_m":57,"consequence_weight":2.66,"idw_subsidence_mm":10.06,"risk_score":0.874,"risk_level":"High","node_tier":"Crack"},"geometry":{"type":"Point","coordinates":[86.431431,23.764669]}},{"type":"Feature","properties":{"subsidence_mm":314.84,"tilt_deg":-0.81193,"strain_ue":422.89,"x_offset_m":105,"y_offset_m":105,"source":"NCB_PFM","nearest_asset_distance_m":58,"consequence_weight":2.65,"idw_subsidence_mm":10.06,"risk_score":0.873,"risk_level":"High","node_tier":"Crack"},"geometry":{"type":"Point","coordinates":[86.431431,23.765343]}},{"type":"Feature","properties":{"subsidence_mm":1556.92,"tilt_deg":-0.80184,"strain_ue":-434.13,"x_offset_m":45,"y_offset_m":-30,"source":"NCB_PFM","nearest_asset_distance_m":98,"consequence_weight":2.41,"idw_subsidence_mm":10.06,"risk_score":0.869,"risk_level":"High","node_tier":"Full"},"geometry":{"type":"Point","coordinates":[86.430842,23.764131]}},{"type":"Feature","properties":{"subsidence_mm":1556.92,"tilt_deg":0.80184,"strain_ue":-434.13,"x_offset_m":-45,"y_offset_m":60,"source":"NCB_PFM","nearest_asset_distance_m":106,"consequence_weight":2.36,"idw_subsidence_mm":10.06,"risk_score":0.866,"risk_level":"High","node_tier":"Full"},"geometry":{"type":"Point","coordinates":[86.429958,23.764939]}},{"type":"Feature","properties":{"subsidence_mm":1556.92,"tilt_deg":0.80184,"strain_ue":-434.13,"x_offset_m":-45,"y_offset_m":105,"source":"NCB_PFM","nearest_asset_distance_m":113,"consequence_weight":2.32,"idw_subsidence_mm":10.06,"risk_score":0.863,"risk_level":"High","node_tier":"Full"},"geometry":{"type":"Point","coordinates":[86.429958,23.765343]}},{"type":"Feature","properties":{"subsidence_mm":314.84,"tilt_deg":-0.81193,"strain_ue":422.89,"x_offset_m":105,"y_offset_m":135,"source":"NCB_PFM","nearest_asset_distance_m":81,"consequence_weight":2.51,"idw_subsidence_mm":10.06,"risk_score":0.863,"risk_level":"High","node_tier":"Crack"},"geometry":{"type":"Point","coordinates":[86.431431,23.765613]}},{"type":"Feature","properties":{"subsidence_mm":1556.92,"tilt_deg":0.80184,"strain_ue":-434.13,"x_offset_m":-45,"y_offset_m":15,"source":"NCB_PFM","nearest_asset_distance_m":118,"consequence_weight":2.29,"idw_subsidence_mm":10.06,"risk_score":0.861,"risk_level":"High","node_tier":"Full"},"geometry":{"type":"Point","coordinates":[86.429958,23.764535]}},{"type":"Feature","properties":{"subsidence_mm":314.84,"tilt_deg":-0.81193,"strain_ue":422.89,"x_offset_m":105,"y_offset_m":-15,"source":"NCB_PFM","nearest_asset_distance_m":93,"consequence_weight":2.44,"idw_subsidence_mm":10.06,"risk_score":0.858,"risk_level":"High","node_tier":"Crack"},"geometry":{"type":"Point","coordinates":[86.431431,23.764265]}},{"type":"Feature","properties":{"subsidence_mm":1556.92,"tilt_deg":-0.80184,"strain_ue":-434.13,"x_offset_m":45,"y_offset_m":195,"source":"NCB_PFM","nearest_asset_distance_m":129,"consequence_weight":2.23,"idw_subsidence_mm":10.06,"risk_score":0.856,"risk_level":"High","node_tier":"Full"},"geometry":{"type":"Point","coordinates":[86.430842,23.766152]}},{"type":"Feature","properties":{"subsidence_mm":1556.92,"tilt_deg":0.80184,"strain_ue":-434.13,"x_offset_m":-45,"y_offset_m":150,"source":"NCB_PFM","nearest_asset_distance_m":135,"consequence_weight":2.19,"idw_subsidence_mm":10.06,"risk_score":0.854,"risk_level":"High","node_tier":"Full"},"geometry":{"type":"Point","coordinates":[86.429958,23.765747]}},{"type":"Feature","properties":{"subsidence_mm":1556.92,"tilt_deg":0.80184,"strain_ue":-434.13,"x_offset_m":-45,"y_offset_m":-30,"source":"NCB_PFM","nearest_asset_distance_m":143,"consequence_weight":2.14,"idw_subsidence_mm":10.06,"risk_score":0.85,"risk_level":"High","node_tier":"Full"},"geometry":{"type":"Point","coordinates":[86.429958,23.764131]}},{"type":"Feature","properties":{"subsidence_mm":314.84,"tilt_deg":-0.81193,"strain_ue":422.89,"x_offset_m":105,"y_offset_m":180,"source":"NCB_PFM","nearest_asset_distance_m":121,"consequence_weight":2.27,"idw_subsidence_mm":10.06,"risk_score":0.846,"risk_level":"High","node_tier":"Crack"},"geometry":{"type":"Point","coordinates":[86.431431,23.766017]}},{"type":"Feature","properties":{"subsidence_mm":1556.92,"tilt_deg":0.80184,"strain_ue":-434.13,"x_offset_m":-45,"y_offset_m":195,"source":"NCB_PFM","nearest_asset_distance_m":166,"consequence_weight":2,"idw_subsidence_mm":10.06,"risk_score":0.84,"risk_level":"High","node_tier":"Full"},"geometry":{"type":"Point","coordinates":[86.429958,23.766152]}},{"type":"Feature","properties":{"subsidence_mm":314.84,"tilt_deg":0.81193,"strain_ue":422.89,"x_offset_m":-105,"y_offset_m":165,"source":"NCB_PFM","nearest_asset_distance_m":140,"consequence_weight":2.16,"idw_subsidence_mm":10.06,"risk_score":0.839,"risk_level":"High","node_tier":"Crack"},"geometry":{"type":"Point","coordinates":[86.429369,23.765882]}},{"type":"Feature","properties":{"subsidence_mm":314.84,"tilt_deg":0.81193,"strain_ue":422.89,"x_offset_m":-105,"y_offset_m":195,"source":"NCB_PFM","nearest_asset_distance_m":140,"consequence_weight":2.16,"idw_subsidence_mm":10.06,"risk_score":0.839,"risk_level":"High","node_tier":"Crack"},"geometry":{"type":"Point","coordinates":[86.429369,23.766152]}},{"type":"Feature","properties":{"subsidence_mm":1556.92,"tilt_deg":-0.80184,"strain_ue":-434.13,"x_offset_m":45,"y_offset_m":240,"source":"NCB_PFM","nearest_asset_distance_m":174,"consequence_weight":1.96,"idw_subsidence_mm":10.06,"risk_score":0.838,"risk_level":"High","node_tier":"Full"},"geometry":{"type":"Point","coordinates":[86.430842,23.766556]}},{"type":"Feature","properties":{"subsidence_mm":314.84,"tilt_deg":0.81193,"strain_ue":422.89,"x_offset_m":-105,"y_offset_m":120,"source":"NCB_PFM","nearest_asset_distance_m":151,"consequence_weight":2.09,"idw_subsidence_mm":10.06,"risk_score":0.834,"risk_level":"High","node_tier":"Crack"},"geometry":{"type":"Point","coordinates":[86.429369,23.765478]}},{"type":"Feature","properties":{"subsidence_mm":314.84,"tilt_deg":0.81193,"strain_ue":422.89,"x_offset_m":-105,"y_offset_m":240,"source":"NCB_PFM","nearest_asset_distance_m":152,"consequence_weight":2.09,"idw_subsidence_mm":10.06,"risk_score":0.834,"risk_level":"High","node_tier":"Crack"},"geometry":{"type":"Point","coordinates":[86.429369,23.766556]}},{"type":"Feature","properties":{"subsidence_mm":314.84,"tilt_deg":-0.81193,"strain_ue":422.89,"x_offset_m":105,"y_offset_m":225,"source":"NCB_PFM","nearest_asset_distance_m":164,"consequence_weight":2.02,"idw_subsidence_mm":10.06,"risk_score":0.829,"risk_level":"High","node_tier":"Crack"},"geometry":{"type":"Point","coordinates":[86.431431,23.766421]}},{"type":"Feature","properties":{"subsidence_mm":314.84,"tilt_deg":0.81193,"strain_ue":422.89,"x_offset_m":-105,"y_offset_m":90,"source":"NCB_PFM","nearest_asset_distance_m":165,"consequence_weight":2.01,"idw_subsidence_mm":10.06,"risk_score":0.828,"risk_level":"High","node_tier":"Crack"},"geometry":{"type":"Point","coordinates":[86.429369,23.765208]}},{"type":"Feature","properties":{"subsidence_mm":314.84,"tilt_deg":0.81193,"strain_ue":422.89,"x_offset_m":-105,"y_offset_m":45,"source":"NCB_PFM","nearest_asset_distance_m":167,"consequence_weight":2,"idw_subsidence_mm":10.06,"risk_score":0.827,"risk_level":"High","node_tier":"Crack"},"geometry":{"type":"Point","coordinates":[86.429369,23.764804]}},{"type":"Feature","properties":{"subsidence_mm":1556.92,"tilt_deg":0.80184,"strain_ue":-434.13,"x_offset_m":-45,"y_offset_m":240,"source":"NCB_PFM","nearest_asset_distance_m":203,"consequence_weight":1.78,"idw_subsidence_mm":10.06,"risk_score":0.825,"risk_level":"High","node_tier":"Full"},"geometry":{"type":"Point","coordinates":[86.429958,23.766556]}},{"type":"Feature","properties":{"subsidence_mm":314.84,"tilt_deg":0.81193,"strain_ue":422.89,"x_offset_m":-105,"y_offset_m":0,"source":"NCB_PFM","nearest_asset_distance_m":179,"consequence_weight":1.93,"idw_subsidence_mm":10.06,"risk_score":0.822,"risk_level":"High","node_tier":"Crack"},"geometry":{"type":"Point","coordinates":[86.429369,23.7644]}},{"type":"Feature","properties":{"subsidence_mm":314.84,"tilt_deg":-0.81193,"strain_ue":422.89,"x_offset_m":105,"y_offset_m":255,"source":"NCB_PFM","nearest_asset_distance_m":193,"consequence_weight":1.84,"idw_subsidence_mm":10.06,"risk_score":0.816,"risk_level":"High","node_tier":"Crack"},"geometry":{"type":"Point","coordinates":[86.431431,23.766691]}},{"type":"Feature","properties":{"subsidence_mm":1556.92,"tilt_deg":-0.80184,"strain_ue":-434.13,"x_offset_m":45,"y_offset_m":-75,"source":"NCB_PFM","nearest_asset_distance_m":143,"consequence_weight":2.14,"idw_subsidence_mm":8.39,"risk_score":0.795,"risk_level":"High","node_tier":"Full"},"geometry":{"type":"Point","coordinates":[86.430842,23.763726]}},{"type":"Feature","properties":{"subsidence_mm":314.84,"tilt_deg":-0.81193,"strain_ue":422.89,"x_offset_m":105,"y_offset_m":-60,"source":"NCB_PFM","nearest_asset_distance_m":134,"consequence_weight":2.2,"idw_subsidence_mm":8.39,"risk_score":0.786,"risk_level":"High","node_tier":"Crack"},"geometry":{"type":"Point","coordinates":[86.431431,23.763861]}},{"type":"Feature","properties":{"subsidence_mm":1556.92,"tilt_deg":0.80184,"strain_ue":-434.13,"x_offset_m":-45,"y_offset_m":-75,"source":"NCB_PFM","nearest_asset_distance_m":177,"consequence_weight":1.94,"idw_subsidence_mm":8.39,"risk_score":0.781,"risk_level":"High","node_tier":"Full"},"geometry":{"type":"Point","coordinates":[86.429958,23.763726]}},{"type":"Feature","properties":{"subsidence_mm":1556.92,"tilt_deg":-0.80184,"strain_ue":-434.13,"x_offset_m":45,"y_offset_m":-120,"source":"NCB_PFM","nearest_asset_distance_m":187,"consequence_weight":1.88,"idw_subsidence_mm":8.39,"risk_score":0.776,"risk_level":"High","node_tier":"Full"},"geometry":{"type":"Point","coordinates":[86.430842,23.763322]}},{"type":"Feature","properties":{"subsidence_mm":1556.92,"tilt_deg":0.80184,"strain_ue":-434.13,"x_offset_m":-45,"y_offset_m":-120,"source":"NCB_PFM","nearest_asset_distance_m":215,"consequence_weight":1.71,"idw_subsidence_mm":8.39,"risk_score":0.764,"risk_level":"High","node_tier":"Full"},"geometry":{"type":"Point","coordinates":[86.429958,23.763322]}},{"type":"Feature","properties":{"subsidence_mm":314.84,"tilt_deg":0.81193,"strain_ue":422.89,"x_offset_m":-105,"y_offset_m":-45,"source":"NCB_PFM","nearest_asset_distance_m":200,"consequence_weight":1.8,"idw_subsidence_mm":8.39,"risk_score":0.758,"risk_level":"High","node_tier":"Crack"},"geometry":{"type":"Point","coordinates":[86.429369,23.763996]}},{"type":"Feature","properties":{"subsidence_mm":314.84,"tilt_deg":0.81193,"strain_ue":422.89,"x_offset_m":-105,"y_offset_m":-75,"source":"NCB_PFM","nearest_asset_distance_m":218,"consequence_weight":1.69,"idw_subsidence_mm":8.39,"risk_score":0.75,"risk_level":"High","node_tier":"Crack"},"geometry":{"type":"Point","coordinates":[86.429369,23.763726]}},{"type":"Feature","properties":{"subsidence_mm":1556.92,"tilt_deg":0.80184,"strain_ue":-434.13,"x_offset_m":-45,"y_offset_m":-165,"source":"NCB_PFM","nearest_asset_distance_m":255,"consequence_weight":1.47,"idw_subsidence_mm":8.39,"risk_score":0.748,"risk_level":"High","node_tier":"Full"},"geometry":{"type":"Point","coordinates":[86.429958,23.762918]}},{"type":"Feature","properties":{"subsidence_mm":314.84,"tilt_deg":0.81193,"strain_ue":422.89,"x_offset_m":-105,"y_offset_m":-120,"source":"NCB_PFM","nearest_asset_distance_m":250,"consequence_weight":1.5,"idw_subsidence_mm":8.39,"risk_score":0.737,"risk_level":"High","node_tier":"Crack"},"geometry":{"type":"Point","coordinates":[86.429369,23.763322]}},{"type":"Feature","properties":{"subsidence_mm":1556.92,"tilt_deg":0.80184,"strain_ue":-434.13,"x_offset_m":-45,"y_offset_m":-210,"source":"NCB_PFM","nearest_asset_distance_m":296,"consequence_weight":1.22,"idw_subsidence_mm":8.39,"risk_score":0.73,"risk_level":"High","node_tier":"Full"},"geometry":{"type":"Point","coordinates":[86.429958,23.762514]}},{"type":"Feature","properties":{"subsidence_mm":314.84,"tilt_deg":-0.81193,"strain_ue":422.89,"x_offset_m":105,"y_offset_m":-165,"source":"NCB_PFM","nearest_asset_distance_m":160,"consequence_weight":1.36,"idw_subsidence_mm":8.39,"risk_score":0.727,"risk_level":"High","node_tier":"Crack"},"geometry":{"type":"Point","coordinates":[86.431431,23.762918]}},{"type":"Feature","properties":{"subsidence_mm":314.84,"tilt_deg":-0.81193,"strain_ue":422.89,"x_offset_m":105,"y_offset_m":-195,"source":"NCB_PFM","nearest_asset_distance_m":164,"consequence_weight":1.34,"idw_subsidence_mm":8.39,"risk_score":0.726,"risk_level":"High","node_tier":"Crack"},"geometry":{"type":"Point","coordinates":[86.431431,23.762648]}},{"type":"Feature","properties":{"subsidence_mm":314.84,"tilt_deg":-0.81193,"strain_ue":422.89,"x_offset_m":105,"y_offset_m":-120,"source":"NCB_PFM","nearest_asset_distance_m":164,"consequence_weight":1.35,"idw_subsidence_mm":8.39,"risk_score":0.726,"risk_level":"High","node_tier":"Crack"},"geometry":{"type":"Point","coordinates":[86.431431,23.763322]}},{"type":"Feature","properties":{"subsidence_mm":1556.92,"tilt_deg":-0.80184,"strain_ue":-434.13,"x_offset_m":45,"y_offset_m":-180,"source":"NCB_PFM","nearest_asset_distance_m":221,"consequence_weight":1.12,"idw_subsidence_mm":8.39,"risk_score":0.723,"risk_level":"High","node_tier":"Full"},"geometry":{"type":"Point","coordinates":[86.430842,23.762783]}},{"type":"Feature","properties":{"subsidence_mm":314.84,"tilt_deg":0.81193,"strain_ue":422.89,"x_offset_m":-105,"y_offset_m":-165,"source":"NCB_PFM","nearest_asset_distance_m":285,"consequence_weight":1.29,"idw_subsidence_mm":8.39,"risk_score":0.722,"risk_level":"High","node_tier":"Crack"},"geometry":{"type":"Point","coordinates":[86.429369,23.762918]}},{"type":"Feature","properties":{"subsidence_mm":314.84,"tilt_deg":-0.81193,"strain_ue":422.89,"x_offset_m":105,"y_offset_m":-240,"source":"NCB_PFM","nearest_asset_distance_m":180,"consequence_weight":1.28,"idw_subsidence_mm":8.39,"risk_score":0.721,"risk_level":"High","node_tier":"Crack"},"geometry":{"type":"Point","coordinates":[86.431431,23.762244]}},{"type":"Feature","properties":{"subsidence_mm":1556.92,"tilt_deg":-0.80184,"strain_ue":-434.13,"x_offset_m":45,"y_offset_m":-225,"source":"NCB_PFM","nearest_asset_distance_m":230,"consequence_weight":1.08,"idw_subsidence_mm":8.39,"risk_score":0.72,"risk_level":"High","node_tier":"Full"},"geometry":{"type":"Point","coordinates":[86.430842,23.762379]}},{"type":"Feature","properties":{"subsidence_mm":1556.92,"tilt_deg":-0.80184,"strain_ue":-434.13,"x_offset_m":45,"y_offset_m":-270,"source":"NCB_PFM","nearest_asset_distance_m":247,"consequence_weight":1.01,"idw_subsidence_mm":8.39,"risk_score":0.715,"risk_level":"High","node_tier":"Full"},"geometry":{"type":"Point","coordinates":[86.430842,23.761975]}},{"type":"Feature","properties":{"subsidence_mm":314.84,"tilt_deg":-0.81193,"strain_ue":422.89,"x_offset_m":105,"y_offset_m":-285,"source":"NCB_PFM","nearest_asset_distance_m":205,"consequence_weight":1.18,"idw_subsidence_mm":8.39,"risk_score":0.714,"risk_level":"High","node_tier":"Crack"},"geometry":{"type":"Point","coordinates":[86.431431,23.76184]}},{"type":"Feature","properties":{"subsidence_mm":314.84,"tilt_deg":0.81193,"strain_ue":422.89,"x_offset_m":-105,"y_offset_m":-195,"source":"NCB_PFM","nearest_asset_distance_m":310,"consequence_weight":1.14,"idw_subsidence_mm":8.39,"risk_score":0.712,"risk_level":"High","node_tier":"Crack"},"geometry":{"type":"Point","coordinates":[86.429369,23.762648]}},{"type":"Feature","properties":{"subsidence_mm":314.84,"tilt_deg":0.81193,"strain_ue":422.89,"x_offset_m":-105,"y_offset_m":-240,"source":"NCB_PFM","nearest_asset_distance_m":349,"consequence_weight":0.91,"idw_subsidence_mm":8.39,"risk_score":0.695,"risk_level":"High","node_tier":"Crack"},"geometry":{"type":"Point","coordinates":[86.429369,23.762244]}},{"type":"Feature","properties":{"subsidence_mm":1556.92,"tilt_deg":0.80184,"strain_ue":-434.13,"x_offset_m":-45,"y_offset_m":-255,"source":"NCB_PFM","nearest_asset_distance_m":325,"consequence_weight":0.7,"idw_subsidence_mm":8.39,"risk_score":0.694,"risk_level":"High","node_tier":"Full"},"geometry":{"type":"Point","coordinates":[86.429958,23.762109]}},{"type":"Feature","properties":{"subsidence_mm":1556.92,"tilt_deg":0.80184,"strain_ue":-434.13,"x_offset_m":-45,"y_offset_m":-300,"source":"NCB_PFM","nearest_asset_distance_m":341,"consequence_weight":0.63,"idw_subsidence_mm":8.39,"risk_score":0.689,"risk_level":"High","node_tier":"Full"},"geometry":{"type":"Point","coordinates":[86.429958,23.761705]}},{"type":"Feature","properties":{"subsidence_mm":314.84,"tilt_deg":0.81193,"strain_ue":422.89,"x_offset_m":-105,"y_offset_m":-285,"source":"NCB_PFM","nearest_asset_distance_m":389,"consequence_weight":0.67,"idw_subsidence_mm":8.39,"risk_score":0.679,"risk_level":"High","node_tier":"Crack"},"geometry":{"type":"Point","coordinates":[86.429369,23.76184]}},{"type":"Feature","properties":{"subsidence_mm":314.84,"tilt_deg":0.81193,"strain_ue":422.89,"x_offset_m":-105,"y_offset_m":285,"source":"NCB_PFM","nearest_asset_distance_m":176,"consequence_weight":1.95,"idw_subsidence_mm":5.03,"risk_score":0.656,"risk_level":"High","node_tier":"Crack"},"geometry":{"type":"Point","coordinates":[86.429369,23.76696]}},{"type":"Feature","properties":{"subsidence_mm":581.02,"tilt_deg":-1.18799,"strain_ue":317.96,"x_offset_m":90,"y_offset_m":-90,"source":"NCB_PFM","nearest_asset_distance_m":159,"consequence_weight":2.04,"idw_subsidence_mm":8.39,"risk_score":0.654,"risk_level":"High","node_tier":"Crack"},"geometry":{"type":"Point","coordinates":[86.431283,23.763592]}},{"type":"Feature","properties":{"subsidence_mm":1556.92,"tilt_deg":-0.80184,"strain_ue":-434.13,"x_offset_m":45,"y_offset_m":285,"source":"NCB_PFM","nearest_asset_distance_m":219,"consequence_weight":1.69,"idw_subsidence_mm":5.03,"risk_score":0.651,"risk_level":"High","node_tier":"Full"},"geometry":{"type":"Point","coordinates":[86.430842,23.76696]}},{"type":"Feature","properties":{"subsidence_mm":1556.92,"tilt_deg":0.80184,"strain_ue":-434.13,"x_offset_m":-45,"y_offset_m":285,"source":"NCB_PFM","nearest_asset_distance_m":226,"consequence_weight":1.64,"idw_subsidence_mm":5.03,"risk_score":0.648,"risk_level":"High","node_tier":"Full"},"geometry":{"type":"Point","coordinates":[86.429958,23.76696]}},{"type":"Feature","properties":{"subsidence_mm":314.84,"tilt_deg":-0.81193,"strain_ue":422.89,"x_offset_m":105,"y_offset_m":300,"source":"NCB_PFM","nearest_asset_distance_m":237,"consequence_weight":1.58,"idw_subsidence_mm":5.03,"risk_score":0.63,"risk_level":"High","node_tier":"Crack"},"geometry":{"type":"Point","coordinates":[86.431431,23.767095]}},{"type":"Feature","properties":{"subsidence_mm":1807.55,"tilt_deg":0,"strain_ue":-212.02,"x_offset_m":0,"y_offset_m":60,"source":"NCB_PFM","nearest_asset_distance_m":61,"consequence_weight":2.63,"idw_subsidence_mm":10.06,"risk_score":0.629,"risk_level":"High","node_tier":"Full"},"geometry":{"type":"Point","coordinates":[86.4304,23.764939]}},{"type":"Feature","properties":{"subsidence_mm":155.89,"tilt_deg":-0.46109,"strain_ue":336.6,"x_offset_m":120,"y_offset_m":-90,"source":"NCB_PFM","nearest_asset_distance_m":159,"consequence_weight":1.36,"idw_subsidence_mm":8.39,"risk_score":0.628,"risk_level":"High","node_tier":"Crack"},"geometry":{"type":"Point","coordinates":[86.431578,23.763592]}},{"type":"Feature","properties":{"subsidence_mm":1807.55,"tilt_deg":0,"strain_ue":-212.02,"x_offset_m":0,"y_offset_m":105,"source":"NCB_PFM","nearest_asset_distance_m":72,"consequence_weight":2.57,"idw_subsidence_mm":10.06,"risk_score":0.624,"risk_level":"High","node_tier":"Full"},"geometry":{"type":"Point","coordinates":[86.4304,23.765343]}},{"type":"Feature","properties":{"subsidence_mm":1807.55,"tilt_deg":0,"strain_ue":-212.02,"x_offset_m":0,"y_offset_m":15,"source":"NCB_PFM","nearest_asset_distance_m":80,"consequence_weight":2.52,"idw_subsidence_mm":10.06,"risk_score":0.621,"risk_level":"High","node_tier":"Full"},"geometry":{"type":"Point","coordinates":[86.4304,23.764535]}},{"type":"Feature","properties":{"subsidence_mm":73.41,"tilt_deg":-0.23334,"strain_ue":203.69,"x_offset_m":135,"y_offset_m":75,"source":"NCB_PFM","nearest_asset_distance_m":74,"consequence_weight":2.55,"idw_subsidence_mm":10.06,"risk_score":0.614,"risk_level":"High","node_tier":"Crack"},"geometry":{"type":"Point","coordinates":[86.431725,23.765074]}},{"type":"Feature","properties":{"subsidence_mm":73.41,"tilt_deg":-0.23334,"strain_ue":203.69,"x_offset_m":135,"y_offset_m":45,"source":"NCB_PFM","nearest_asset_distance_m":77,"consequence_weight":2.54,"idw_subsidence_mm":10.06,"risk_score":0.613,"risk_level":"High","node_tier":"Crack"},"geometry":{"type":"Point","coordinates":[86.431725,23.764804]}},{"type":"Feature","properties":{"subsidence_mm":1807.55,"tilt_deg":0,"strain_ue":-212.02,"x_offset_m":0,"y_offset_m":150,"source":"NCB_PFM","nearest_asset_distance_m":103,"consequence_weight":2.38,"idw_subsidence_mm":10.06,"risk_score":0.611,"risk_level":"High","node_tier":"Full"},"geometry":{"type":"Point","coordinates":[86.4304,23.765747]}},{"type":"Feature","properties":{"subsidence_mm":1807.55,"tilt_deg":0,"strain_ue":-212.02,"x_offset_m":0,"y_offset_m":-30,"source":"NCB_PFM","nearest_asset_distance_m":114,"consequence_weight":2.31,"idw_subsidence_mm":10.06,"risk_score":0.606,"risk_level":"High","node_tier":"Full"},"geometry":{"type":"Point","coordinates":[86.4304,23.764131]}},{"type":"Feature","properties":{"subsidence_mm":73.41,"tilt_deg":-0.23334,"strain_ue":203.69,"x_offset_m":135,"y_offset_m":120,"source":"NCB_PFM","nearest_asset_distance_m":91,"consequence_weight":2.45,"idw_subsidence_mm":10.06,"risk_score":0.606,"risk_level":"High","node_tier":"Crack"},"geometry":{"type":"Point","coordinates":[86.431725,23.765478]}},{"type":"Feature","properties":{"subsidence_mm":73.41,"tilt_deg":-0.23334,"strain_ue":203.69,"x_offset_m":135,"y_offset_m":0,"source":"NCB_PFM","nearest_asset_distance_m":99,"consequence_weight":2.4,"idw_subsidence_mm":10.06,"risk_score":0.603,"risk_level":"High","node_tier":"Crack"},"geometry":{"type":"Point","coordinates":[86.431725,23.7644]}},{"type":"Feature","properties":{"subsidence_mm":73.41,"tilt_deg":0.23334,"strain_ue":203.69,"x_offset_m":-135,"y_offset_m":165,"source":"NCB_PFM","nearest_asset_distance_m":110,"consequence_weight":2.34,"idw_subsidence_mm":10.06,"risk_score":0.599,"risk_level":"Medium","node_tier":"Lite"},"geometry":{"type":"Point","coordinates":[86.429075,23.765882]}},{"type":"Feature","properties":{"subsidence_mm":73.41,"tilt_deg":-0.23334,"strain_ue":203.69,"x_offset_m":135,"y_offset_m":-15,"source":"NCB_PFM","nearest_asset_distance_m":110,"consequence_weight":2.34,"idw_subsidence_mm":10.06,"risk_score":0.599,"risk_level":"Medium","node_tier":"Lite"},"geometry":{"type":"Point","coordinates":[86.431725,23.764265]}},{"type":"Feature","properties":{"subsidence_mm":155.89,"tilt_deg":0.46109,"strain_ue":336.6,"x_offset_m":-120,"y_offset_m":-225,"source":"NCB_PFM","nearest_asset_distance_m":343,"consequence_weight":0.94,"idw_subsidence_mm":8.39,"risk_score":0.598,"risk_level":"Medium","node_tier":"Lite"},"geometry":{"type":"Point","coordinates":[86.429222,23.762379]}},{"type":"Feature","properties":{"subsidence_mm":1786.26,"tilt_deg":-0.18222,"strain_ue":-254.82,"x_offset_m":15,"y_offset_m":-45,"source":"NCB_PFM","nearest_asset_distance_m":121,"consequence_weight":2.28,"idw_subsidence_mm":8.39,"risk_score":0.598,"risk_level":"Medium","node_tier":"Lite"},"geometry":{"type":"Point","coordinates":[86.430547,23.763996]}},{"type":"Feature","properties":{"subsidence_mm":1292.3,"tilt_deg":-1.18421,"strain_ue":-323.83,"x_offset_m":60,"y_offset_m":-210,"source":"NCB_PFM","nearest_asset_distance_m":212,"consequence_weight":1.15,"idw_subsidence_mm":8.39,"risk_score":0.598,"risk_level":"Medium","node_tier":"Lite"},"geometry":{"type":"Point","coordinates":[86.430989,23.762514]}},{"type":"Feature","properties":{"subsidence_mm":73.41,"tilt_deg":-0.23334,"strain_ue":203.69,"x_offset_m":135,"y_offset_m":150,"source":"NCB_PFM","nearest_asset_distance_m":111,"consequence_weight":2.33,"idw_subsidence_mm":10.06,"risk_score":0.598,"risk_level":"Medium","node_tier":"Lite"},"geometry":{"type":"Point","coordinates":[86.431725,23.765747]}},{"type":"Feature","properties":{"subsidence_mm":1807.55,"tilt_deg":0,"strain_ue":-212.02,"x_offset_m":0,"y_offset_m":195,"source":"NCB_PFM","nearest_asset_distance_m":142,"consequence_weight":2.15,"idw_subsidence_mm":10.06,"risk_score":0.595,"risk_level":"Medium","node_tier":"Lite"},"geometry":{"type":"Point","coordinates":[86.4304,23.766152]}},{"type":"Feature","properties":{"subsidence_mm":581.02,"tilt_deg":-1.18799,"strain_ue":317.96,"x_offset_m":90,"y_offset_m":-285,"source":"NCB_PFM","nearest_asset_distance_m":217,"consequence_weight":1.13,"idw_subsidence_mm":8.39,"risk_score":0.59,"risk_level":"Medium","node_tier":"Lite"},"geometry":{"type":"Point","coordinates":[86.431283,23.76184]}},{"type":"Feature","properties":{"subsidence_mm":73.41,"tilt_deg":0.23334,"strain_ue":203.69,"x_offset_m":-135,"y_offset_m":255,"source":"NCB_PFM","nearest_asset_distance_m":134,"consequence_weight":2.2,"idw_subsidence_mm":10.06,"risk_score":0.589,"risk_level":"Medium","node_tier":"Lite"},"geometry":{"type":"Point","coordinates":[86.429075,23.766691]}},{"type":"Feature","properties":{"subsidence_mm":73.41,"tilt_deg":0.23334,"strain_ue":203.69,"x_offset_m":-135,"y_offset_m":75,"source":"NCB_PFM","nearest_asset_distance_m":150,"consequence_weight":2.1,"idw_subsidence_mm":10.06,"risk_score":0.582,"risk_level":"Medium","node_tier":"Lite"},"geometry":{"type":"Point","coordinates":[86.429075,23.765074]}},{"type":"Feature","properties":{"subsidence_mm":1712.14,"tilt_deg":-0.438,"strain_ue":-360.48,"x_offset_m":30,"y_offset_m":270,"source":"NCB_PFM","nearest_asset_distance_m":205,"consequence_weight":1.77,"idw_subsidence_mm":5.03,"risk_score":0.572,"risk_level":"Medium","node_tier":"Lite"},"geometry":{"type":"Point","coordinates":[86.430694,23.766825]}},{"type":"Feature","properties":{"subsidence_mm":73.41,"tilt_deg":-0.23334,"strain_ue":203.69,"x_offset_m":135,"y_offset_m":240,"source":"NCB_PFM","nearest_asset_distance_m":188,"consequence_weight":1.87,"idw_subsidence_mm":10.06,"risk_score":0.566,"risk_level":"Medium","node_tier":"Lite"},"geometry":{"type":"Point","coordinates":[86.431725,23.766556]}},{"type":"Feature","properties":{"subsidence_mm":1786.26,"tilt_deg":0.18222,"strain_ue":-254.82,"x_offset_m":-15,"y_offset_m":-120,"source":"NCB_PFM","nearest_asset_distance_m":201,"consequence_weight":1.79,"idw_subsidence_mm":8.39,"risk_score":0.564,"risk_level":"Medium","node_tier":"Lite"},"geometry":{"type":"Point","coordinates":[86.430253,23.763322]}},{"type":"Feature","properties":{"subsidence_mm":1292.3,"tilt_deg":1.18421,"strain_ue":-323.83,"x_offset_m":-60,"y_offset_m":-285,"source":"NCB_PFM","nearest_asset_distance_m":349,"consequence_weight":0.6,"idw_subsidence_mm":8.39,"risk_score":0.56,"risk_level":"Medium","node_tier":"Lite"},"geometry":{"type":"Point","coordinates":[86.429811,23.76184]}},{"type":"Feature","properties":{"subsidence_mm":73.41,"tilt_deg":0.23334,"strain_ue":203.69,"x_offset_m":-135,"y_offset_m":-15,"source":"NCB_PFM","nearest_asset_distance_m":212,"consequence_weight":1.73,"idw_subsidence_mm":10.06,"risk_score":0.556,"risk_level":"Medium","node_tier":"Lite"},"geometry":{"type":"Point","coordinates":[86.429075,23.764265]}},{"type":"Feature","properties":{"subsidence_mm":1292.3,"tilt_deg":1.18421,"strain_ue":-323.83,"x_offset_m":-60,"y_offset_m":285,"source":"NCB_PFM","nearest_asset_distance_m":213,"consequence_weight":1.72,"idw_subsidence_mm":5.03,"risk_score":0.526,"risk_level":"Medium","node_tier":"Lite"},"geometry":{"type":"Point","coordinates":[86.429811,23.76696]}},{"type":"Feature","properties":{"subsidence_mm":73.41,"tilt_deg":-0.23334,"strain_ue":203.69,"x_offset_m":135,"y_offset_m":-165,"source":"NCB_PFM","nearest_asset_distance_m":130,"consequence_weight":1.48,"idw_subsidence_mm":8.39,"risk_score":0.483,"risk_level":"Medium","node_tier":"Lite"},"geometry":{"type":"Point","coordinates":[86.431725,23.762918]}},{"type":"Feature","properties":{"subsidence_mm":73.41,"tilt_deg":0.23334,"strain_ue":203.69,"x_offset_m":-135,"y_offset_m":-105,"source":"NCB_PFM","nearest_asset_distance_m":260,"consequence_weight":1.44,"idw_subsidence_mm":8.39,"risk_score":0.48,"risk_level":"Medium","node_tier":"Lite"},"geometry":{"type":"Point","coordinates":[86.429075,23.763457]}},{"type":"Feature","properties":{"subsidence_mm":1.4,"tilt_deg":0.00474,"strain_ue":4.88,"x_offset_m":-210,"y_offset_m":-45,"source":"NCB_PFM","nearest_asset_distance_m":225,"consequence_weight":1.65,"idw_subsidence_mm":12.82,"risk_score":0.413,"risk_level":"Medium","node_tier":"Lite"},"geometry":{"type":"Point","coordinates":[86.428339,23.763996]}},{"type":"Feature","properties":{"subsidence_mm":936.87,"tilt_deg":-1.35846,"strain_ue":-2.2,"x_offset_m":75,"y_offset_m":60,"source":"NCB_PFM","nearest_asset_distance_m":15,"consequence_weight":2.91,"idw_subsidence_mm":10.06,"risk_score":0.407,"risk_level":"Medium","node_tier":"Lite"},"geometry":{"type":"Point","coordinates":[86.431136,23.764939]}},{"type":"Feature","properties":{"subsidence_mm":0.01,"tilt_deg":0.00005,"strain_ue":0.04,"x_offset_m":-300,"y_offset_m":-45,"source":"NCB_PFM","nearest_asset_distance_m":230,"consequence_weight":1.62,"idw_subsidence_mm":12.82,"risk_score":0.405,"risk_level":"Medium","node_tier":"Lite"},"geometry":{"type":"Point","coordinates":[86.427455,23.763996]}},{"type":"Feature","properties":{"subsidence_mm":15.3,"tilt_deg":0.0512,"strain_ue":51.02,"x_offset_m":-165,"y_offset_m":-300,"source":"NCB_PFM","nearest_asset_distance_m":430,"consequence_weight":0.42,"idw_subsidence_mm":12.82,"risk_score":0.38,"risk_level":"Medium","node_tier":"Lite"},"geometry":{"type":"Point","coordinates":[86.42878,23.761705]}},{"type":"Feature","properties":{"subsidence_mm":0.28,"tilt_deg":0.00096,"strain_ue":0.99,"x_offset_m":-240,"y_offset_m":-120,"source":"NCB_PFM","nearest_asset_distance_m":298,"consequence_weight":1.21,"idw_subsidence_mm":12.82,"risk_score":0.378,"risk_level":"Medium","node_tier":"Lite"},"geometry":{"type":"Point","coordinates":[86.428044,23.763322]}},{"type":"Feature","properties":{"subsidence_mm":3.11,"tilt_deg":0.01052,"strain_ue":10.79,"x_offset_m":-195,"y_offset_m":-195,"source":"NCB_PFM","nearest_asset_distance_m":366,"consequence_weight":0.8,"idw_subsidence_mm":12.82,"risk_score":0.36,"risk_level":"Medium","node_tier":"Lite"},"geometry":{"type":"Point","coordinates":[86.428486,23.762648]}},{"type":"Feature","properties":{"subsidence_mm":15.3,"tilt_deg":-0.0512,"strain_ue":51.02,"x_offset_m":165,"y_offset_m":60,"source":"NCB_PFM","nearest_asset_distance_m":104,"consequence_weight":2.38,"idw_subsidence_mm":7.9,"risk_score":0.354,"risk_level":"Medium","node_tier":"Lite"},"geometry":{"type":"Point","coordinates":[86.43202,23.764939]}},{"type":"Feature","properties":{"subsidence_mm":0.28,"tilt_deg":0.00096,"strain_ue":0.99,"x_offset_m":-240,"y_offset_m":180,"source":"NCB_PFM","nearest_asset_distance_m":5,"consequence_weight":2.97,"idw_subsidence_mm":8.34,"risk_score":0.352,"risk_level":"Medium","node_tier":"Lite"},"geometry":{"type":"Point","coordinates":[86.428044,23.766017]}},{"type":"Feature","properties":{"subsidence_mm":0.01,"tilt_deg":0.00005,"strain_ue":0.04,"x_offset_m":-300,"y_offset_m":-180,"source":"NCB_PFM","nearest_asset_distance_m":362,"consequence_weight":0.83,"idw_subsidence_mm":12.82,"risk_score":0.35,"risk_level":"Medium","node_tier":"Lite"},"geometry":{"type":"Point","coordinates":[86.427455,23.762783]}},{"type":"Feature","properties":{"subsidence_mm":1.4,"tilt_deg":0.00474,"strain_ue":4.88,"x_offset_m":-210,"y_offset_m":105,"source":"NCB_PFM","nearest_asset_distance_m":81,"consequence_weight":2.52,"idw_subsidence_mm":8.34,"risk_score":0.325,"risk_level":"Low","node_tier":"Lite"},"geometry":{"type":"Point","coordinates":[86.428339,23.765343]}},{"type":"Feature","properties":{"subsidence_mm":0.01,"tilt_deg":0.00005,"strain_ue":0.04,"x_offset_m":-300,"y_offset_m":120,"source":"NCB_PFM","nearest_asset_distance_m":80,"consequence_weight":2.52,"idw_subsidence_mm":8.34,"risk_score":0.32,"risk_level":"Low","node_tier":"Lite"},"geometry":{"type":"Point","coordinates":[86.427455,23.765478]}},{"type":"Feature","properties":{"subsidence_mm":0.06,"tilt_deg":0.00019,"strain_ue":0.2,"x_offset_m":-270,"y_offset_m":-255,"source":"NCB_PFM","nearest_asset_distance_m":433,"consequence_weight":0.4,"idw_subsidence_mm":12.82,"risk_score":0.32,"risk_level":"Low","node_tier":"Lite"},"geometry":{"type":"Point","coordinates":[86.42775,23.762109]}},{"type":"Feature","properties":{"subsidence_mm":0.06,"tilt_deg":0.00019,"strain_ue":0.2,"x_offset_m":-270,"y_offset_m":255,"source":"NCB_PFM","nearest_asset_distance_m":81,"consequence_weight":2.51,"idw_subsidence_mm":8.34,"risk_score":0.319,"risk_level":"Low","node_tier":"Lite"},"geometry":{"type":"Point","coordinates":[86.42775,23.766691]}},{"type":"Feature","properties":{"subsidence_mm":15.3,"tilt_deg":-0.0512,"strain_ue":51.02,"x_offset_m":165,"y_offset_m":-90,"source":"NCB_PFM","nearest_asset_distance_m":119,"consequence_weight":1.52,"idw_subsidence_mm":8.27,"risk_score":0.306,"risk_level":"Low","node_tier":"Lite"},"geometry":{"type":"Point","coordinates":[86.43202,23.763592]}},{"type":"Feature","properties":{"subsidence_mm":15.3,"tilt_deg":-0.0512,"strain_ue":51.02,"x_offset_m":165,"y_offset_m":-240,"source":"NCB_PFM","nearest_asset_distance_m":130,"consequence_weight":1.48,"idw_subsidence_mm":8.27,"risk_score":0.303,"risk_level":"Low","node_tier":"Lite"},"geometry":{"type":"Point","coordinates":[86.43202,23.762244]}},{"type":"Feature","properties":{"subsidence_mm":0.06,"tilt_deg":0.00019,"strain_ue":0.2,"x_offset_m":-270,"y_offset_m":45,"source":"NCB_PFM","nearest_asset_distance_m":135,"consequence_weight":2.19,"idw_subsidence_mm":8.34,"risk_score":0.297,"risk_level":"Low","node_tier":"Lite"},"geometry":{"type":"Point","coordinates":[86.42775,23.764804]}},{"type":"Feature","properties":{"subsidence_mm":936.87,"tilt_deg":-1.35846,"strain_ue":-2.2,"x_offset_m":75,"y_offset_m":-105,"source":"NCB_PFM","nearest_asset_distance_m":172,"consequence_weight":1.97,"idw_subsidence_mm":8.39,"risk_score":0.285,"risk_level":"Low","node_tier":"Lite"},"geometry":{"type":"Point","coordinates":[86.431136,23.763457]}},{"type":"Feature","properties":{"subsidence_mm":0.06,"tilt_deg":-0.00019,"strain_ue":0.2,"x_offset_m":270,"y_offset_m":-150,"source":"NCB_PFM","nearest_asset_distance_m":8,"consequence_weight":1.97,"idw_subsidence_mm":8.27,"risk_score":0.279,"risk_level":"Low","node_tier":"Lite"},"geometry":{"type":"Point","coordinates":[86.43305,23.763053]}},{"type":"Feature","properties":{"subsidence_mm":0.63,"tilt_deg":-0.00213,"strain_ue":2.2,"x_offset_m":225,"y_offset_m":120,"source":"NCB_PFM","nearest_asset_distance_m":172,"consequence_weight":1.97,"idw_subsidence_mm":7.9,"risk_score":0.269,"risk_level":"Low","node_tier":"Lite"},"geometry":{"type":"Point","coordinates":[86.432608,23.765478]}},{"type":"Feature","properties":{"subsidence_mm":0.28,"tilt_deg":-0.00096,"strain_ue":0.99,"x_offset_m":240,"y_offset_m":30,"source":"NCB_PFM","nearest_asset_distance_m":182,"consequence_weight":1.91,"idw_subsidence_mm":7.9,"risk_score":0.263,"risk_level":"Low","node_tier":"Lite"},"geometry":{"type":"Point","coordinates":[86.432756,23.764669]}},{"type":"Feature","properties":{"subsidence_mm":0.01,"tilt_deg":-0.00005,"strain_ue":0.04,"x_offset_m":300,"y_offset_m":-225,"source":"NCB_PFM","nearest_asset_distance_m":77,"consequence_weight":1.69,"idw_subsidence_mm":8.27,"risk_score":0.259,"risk_level":"Low","node_tier":"Lite"},"geometry":{"type":"Point","coordinates":[86.433345,23.762379]}},{"type":"Feature","properties":{"subsidence_mm":1.4,"tilt_deg":-0.00474,"strain_ue":4.88,"x_offset_m":210,"y_offset_m":210,"source":"NCB_PFM","nearest_asset_distance_m":206,"consequence_weight":1.76,"idw_subsidence_mm":7.9,"risk_score":0.257,"risk_level":"Low","node_tier":"Lite"},"geometry":{"type":"Point","coordinates":[86.432461,23.766286]}},{"type":"Feature","properties":{"subsidence_mm":0.01,"tilt_deg":-0.00005,"strain_ue":0.04,"x_offset_m":300,"y_offset_m":-75,"source":"NCB_PFM","nearest_asset_distance_m":88,"consequence_weight":1.65,"idw_subsidence_mm":8.27,"risk_score":0.256,"risk_level":"Low","node_tier":"Lite"},"geometry":{"type":"Point","coordinates":[86.433345,23.763726]}},{"type":"Feature","properties":{"subsidence_mm":0.28,"tilt_deg":-0.00096,"strain_ue":0.99,"x_offset_m":240,"y_offset_m":-285,"source":"NCB_PFM","nearest_asset_distance_m":131,"consequence_weight":1.47,"idw_subsidence_mm":8.27,"risk_score":0.245,"risk_level":"Low","node_tier":"Lite"},"geometry":{"type":"Point","coordinates":[86.432756,23.76184]}},{"type":"Feature","properties":{"subsidence_mm":0.01,"tilt_deg":-0.00005,"strain_ue":0.04,"x_offset_m":300,"y_offset_m":90,"source":"NCB_PFM","nearest_asset_distance_m":240,"consequence_weight":1.56,"idw_subsidence_mm":7.9,"risk_score":0.238,"risk_level":"Low","node_tier":"Lite"},"geometry":{"type":"Point","coordinates":[86.433345,23.765208]}},{"type":"Feature","properties":{"subsidence_mm":0.03,"tilt_deg":-0.00009,"strain_ue":0.08,"x_offset_m":285,"y_offset_m":180,"source":"NCB_PFM","nearest_asset_distance_m":251,"consequence_weight":1.5,"idw_subsidence_mm":7.9,"risk_score":0.233,"risk_level":"Low","node_tier":"Lite"},"geometry":{"type":"Point","coordinates":[86.433197,23.766017]}},{"type":"Feature","properties":{"subsidence_mm":3.11,"tilt_deg":-0.01052,"strain_ue":10.79,"x_offset_m":195,"y_offset_m":300,"source":"NCB_PFM","nearest_asset_distance_m":269,"consequence_weight":1.39,"idw_subsidence_mm":6,"risk_score":0.175,"risk_level":"Low","node_tier":"Lite"},"geometry":{"type":"Point","coordinates":[86.432314,23.767095]}},{"type":"Feature","properties":{"subsidence_mm":0.06,"tilt_deg":-0.00019,"strain_ue":0.2,"x_offset_m":270,"y_offset_m":270,"source":"NCB_PFM","nearest_asset_distance_m":291,"consequence_weight":1.25,"idw_subsidence_mm":6,"risk_score":0.153,"risk_level":"Low","node_tier":"Lite"},"geometry":{"type":"Point","coordinates":[86.43305,23.766825]}}]}