{"type": "FeatureCollection", "features": [{"type": "Feature", "properties": {"name": "panel_boundary", "width_m": 142192.6, "depth_m": 220.0, "extraction_thickness_m": 2.5, "seam_dip_deg": 0.0, "water_risk_flag": false, "fault_risk_flag": false, "old_workings_flag": false}, "geometry": {"type": "Polygon", "coordinates": [[[86.89097387066718, 25.44327467527943], [87.56115453383663, 24.637031362652174], [86.416, 23.751], [86.15448212083781, 24.607069185262866], [86.41837897667412, 25.373809184267138], [86.89097387066718, 25.44327467527943]]]}}]}