{"type":"FeatureCollection","features":[{"type":"Feature","properties":{"risk_level":"Low","point_count":1681},"geometry":{"type":"Polygon","coordinates":[[[86.719023,24.87335],[86.719023,24.873484],[86.719023,24.873619],[86.719023,24.873754],[86.719023,24.873889],[86.719023,24.874023],[86.719023,24.874158],[86.719023,24.874293],[86.719023,24.874428],[86.719023,24.874562],[86.719023,24.874697],[86.719023,24.874832],[86.719023,24.874967],[86.719023,24.875101],[86.719023,24.875236],[86.719023,24.875371],[86.719023,24.875506],[86.719023,24.87564],[86.719023,24.875775],[86.719023,24.87591],[86.719023,24.876045],[86.719023,24.876179],[86.719023,24.876314],[86.719023,24.876449],[86.719023,24.876584],[86.719023,24.876718],[86.719023,24.876853],[86.719023,24.876988],[86.719023,24.877123],[86.719023,24.877257],[86.719023,24.877392],[86.719023,24.877527],[86.719023,24.877662],[86.719023,24.877796],[86.719023,24.877931],[86.719023,24.878066],[86.719023,24.878201],[86.719023,24.878335],[86.719023,24.87847],[86.719023,24.878605],[86.719172,24.878605],[86.71932,24.878605],[86.719469,24.878605],[86.719617,24.878605],[86.719766,24.878605],[86.719915,24.878605],[86.720063,24.878605],[86.720212,24.878605],[86.72036,24.878605],[86.720509,24.878605],[86.720657,24.878605],[86.720806,24.878605],[86.720954,24.878605],[86.721103,24.878605],[86.721251,24.878605],[86.7214,24.878605],[86.721548,24.878605],[86.721697,24.878605],[86.721845,24.878605],[86.721994,24.878605],[86.722142,24.878605],[86.722291,24.878605],[86.722439,24.878605],[86.722588,24.878605],[86.722737,24.878605],[86.722885,24.878605],[86.723034,24.878605],[86.723182,24.878605],[86.723331,24.878605],[86.723479,24.878605],[86.723628,24.878605],[86.723776,24.878605],[86.723925,24.878605],[86.724073,24.878605],[86.724222,24.878605],[86.72437,24.878605],[86.724519,24.878605],[86.724667,24.878605],[86.724816,24.878605],[86.724964,24.878605],[86.724964,24.87847],[86.724964,24.878335],[86.724964,24.878201],[86.724964,24.878066],[86.724964,24.877931],[86.724964,24.877796],[86.724964,24.877662],[86.724964,24.877527],[86.724964,24.877392],[86.724964,24.877257],[86.724964,24.877123],[86.724964,24.876988],[86.724964,24.876853],[86.724964,24.876718],[86.724964,24.876584],[86.724964,24.876449],[86.724964,24.876314],[86.724964,24.876179],[86.724964,24.876045],[86.724964,24.87591],[86.724964,24.875775],[86.724964,24.87564],[86.724964,24.875506],[86.724964,24.875371],[86.724964,24.875236],[86.724964,24.875101],[86.724964,24.874967],[86.724964,24.874832],[86.724964,24.874697],[86.724964,24.874562],[86.724964,24.874428],[86.724964,24.874293],[86.724964,24.874158],[86.724964,24.874023],[86.724964,24.873889],[86.724964,24.873754],[86.724964,24.873619],[86.724964,24.873484],[86.724964,24.87335],[86.724964,24.873215],[86.724816,24.873215],[86.724667,24.873215],[86.724519,24.873215],[86.72437,24.873215],[86.724222,24.873215],[86.724073,24.873215],[86.723925,24.873215],[86.723776,24.873215],[86.723628,24.873215],[86.723479,24.873215],[86.723331,24.873215],[86.723182,24.873215],[86.723034,24.873215],[86.722885,24.873215],[86.722737,24.873215],[86.722588,24.873215],[86.722439,24.873215],[86.722291,24.873215],[86.722142,24.873215],[86.721994,24.873215],[86.721845,24.873215],[86.721697,24.873215],[86.721548,24.873215],[86.7214,24.873215],[86.721251,24.873215],[86.721103,24.873215],[86.720954,24.873215],[86.720806,24.873215],[86.720657,24.873215],[86.720509,24.873215],[86.72036,24.873215],[86.720212,24.873215],[86.720063,24.873215],[86.719915,24.873215],[86.719766,24.873215],[86.719617,24.873215],[86.719469,24.873215],[86.71932,24.873215],[86.719172,24.873215],[86.719023,24.873215],[86.719023,24.87335]]]}}]}